CUTE-1 (CO-55)          
1 27844U 03031E   26047.48823580  .00000357  00000+0  17366-3 0  9999
2 27844  98.6778  57.5510 0009752 169.6812 190.4569 14.24247748174493
CUBESAT XI-IV (CO-57)   
1 27848U 03031J   26047.48690548  .00000303  00000+0  15244-3 0  9993
2 27848  98.6806  57.3596 0009283 187.6935 172.4103 14.23545723174202
CUBESAT XI-V            
1 28895U 05043F   26047.37538846  .00002136  00000+0  34653-3 0  9992
2 28895  98.2787 200.6033 0013509 225.7636 134.2462 14.72220284 83979
CUTE-1.7+APD II (CO-65) 
1 32785U 08021C   26047.48290271  .00007754  00000+0  50677-3 0  9998
2 32785  97.8168  26.5853 0011051  81.0215 279.2263 15.08047994966997
CANX-2                  
1 32790U 08021H   26047.49316706  .00005822  00000+0  41920-3 0  9992
2 32790  97.8512  25.0966 0012147  91.0635 269.1982 15.04542284966656
SEEDS II (CO-66)        
1 32791U 08021J   26047.44941209  .00022413  00000+0  81869-3 0  9991
2 32791  97.7492  40.0168 0004649  49.3370 310.8272 15.28113975968828
SWISSCUBE               
1 35932U 09051B   26047.19596677  .00001345  00000+0  27681-3 0  9995
2 35932  98.4120 312.9557 0005723 223.1950 136.8802 14.62196227871474
BEESAT-1                
1 35933U 09051C   26047.21257215  .00001128  00000+0  23746-3 0  9998
2 35933  98.4050 312.8557 0004051 238.2110 121.8696 14.61479636871511
ITUPSAT1                
1 35935U 09051E   26047.23529030  .00001028  00000+0  22332-3 0  9998
2 35935  98.4139 312.1947 0006205 252.6259 107.4262 14.60218944871087
TISAT 1                 
1 36799U 10035E   26046.80534388  .00024770  00000+0  94870-3 0  9990
2 36799  98.0637 343.1461 0002122  20.3574 339.7747 15.26536519849159
AEROCUBE 4.5A           
1 38767U 12048K   26047.50384007  .00081953  00000+0  10200-2 0  9992
2 38767  64.6378  93.5877 0045560 219.0170 140.7686 15.58205707353683
STRAND-1                
1 39090U 13009E   26047.46779603  .00000395  00000+0  14747-3 0  9997
2 39090  98.3864 230.6891 0007858 226.6945 133.3588 14.37075179679728
BRITE-AUSTRIA           
1 39091U 13009F   26047.49927322  .00000240  00000+0  96233-4 0  9994
2 39091  98.3932 229.9387 0009229 236.9412 123.0888 14.36482899679722
NEE-01 PEGASO           
1 39151U 13018B   26047.32062977  .00004196  00000+0  40977-3 0  9996
2 39151  98.1006 187.6749 0012592 197.8236 162.2542 14.92911486692668
POPACS 2                
1 39269U 13055E   26047.38251454  .00018702  00000+0  33276-3 0  9995
2 39269  80.9934 282.0806 0433549 220.8815 135.9133 14.86743117645231
POPACS 3                
1 39270U 13055F   26046.86033775  .00011778  00000+0  28307-3 0  9998
2 39270  81.0042   0.4869 0563583  78.8845 287.5157 14.53279935620916
ZACUBE-1 (TSHEPISOSAT)  
1 39417U 13066B   26047.45296838  .00006576  00000+0  52362-3 0  9998
2 39417  97.8190   9.1739 0040501 293.1765  66.5194 15.00074852662627
WNISAT-1                
1 39423U 13066H   26047.42204881  .00001346  00000+0  25474-3 0  9993
2 39423  97.7001 205.2875 0162482 252.1722 106.1696 14.57792440649135
TRITON-1                
1 39427U 13066M   26047.52556034  .00004014  00000+0  48991-3 0  9992
2 39427  97.8312 320.1037 0089416 267.6575  91.4397 14.81065281656229
GOMX-1                  
1 39430U 13066Q   26047.57384530  .00002073  00000+0  31774-3 0  9995
2 39430  97.6579 255.5949 0130790 104.6312 256.9437 14.69007575652205
CUBEBUG-2 (LO-74)       
1 39440U 13066AA  26047.38244880  .00005675  00000+0  53662-3 0  9999
2 39440  97.8782 356.0316 0060554  68.3298 292.4354 14.92680024658962
NEE-02 KRYSAOR          
1 39441U 13066AB  26047.37044242  .00002921  00000+0  32651-3 0  9995
2 39441  97.8800 347.5689 0068417 105.3657 255.5131 14.86021219658252
FUNCUBE-1 (AO-73)       
1 39444U 13066AE  26047.46947127  .00010320  00000+0  67429-3 0  9995
2 39444  97.8142  16.6598 0035811 253.7253 106.0034 15.07484635661467
UWE-3                   
1 39446U 13066AG  26047.39355722  .00006575  00000+0  57817-3 0  9990
2 39446  97.8556   2.8529 0050422   4.2037 355.9597 14.95894666659510
BRITE-CA1 (TORONTO)     
1 40020U 14033L   26047.35879660  .00001110  00000+0  17529-3 0  9999
2 40020  97.9536 178.6723 0077863 304.2767  55.1084 14.72401790624438
DUCHIFAT-1              
1 40021U 14033M   26047.05072139  .00054641  00000+0  10699-2 0  9990
2 40021  98.0685  90.9729 0006613 144.7350 215.4336 15.47201751636924
NANOSATC-BR1            
1 40024U 14033Q   26047.49853338  .00019129  00000+0  71783-3 0  9993
2 40024  98.0861  69.4936 0002265 223.1881 136.9179 15.27273206635534
QB50P1                  
1 40025U 14033R   26047.46024418  .00011032  00000+0  57696-3 0  9992
2 40025  98.0994  50.3190 0006971 282.8296  77.2156 15.16035129634723
QB50P2                  
1 40032U 14033Y   26047.50623516  .00010256  00000+0  58050-3 0  9991
2 40032  98.0705  37.0748 0006212 214.3684 145.7145 15.13241698634402
PERSEUS-M2              
1 40037U 14033AD  26047.47826369  .00002690  00000+0  25097-3 0  9991
2 40037  97.9835 355.6998 0011686 349.1001  10.9964 14.95053623632741
PERSEUS-M1              
1 40039U 14033AF  26047.39274343  .00003010  00000+0  27952-3 0  9992
2 40039  97.9535 349.6724 0011236 347.6549  12.4394 14.95138329632584
POLYITAN-1              
1 40042U 14033AJ  26047.47110210  .00020627  00000+0  74263-3 0  9997
2 40042  98.1053  62.6708 0007098 194.3286 165.7752 15.28601867635128
TIGRISAT                
1 40043U 14033AK  26047.42741520  .00003220  00000+0  37871-3 0  9991
2 40043  97.7630 200.3725 0050964 110.5152 250.1543 14.84603037627701
AEROCUBE 6A             
1 40045U 14033AM  26047.40317642  .00007918  00000+0  69008-3 0  9990
2 40045  97.7085 215.8445 0040330  61.0788 299.4469 14.96517378628549
AEROCUBE 6B             
1 40046U 14033AN  26047.45263101  .00008236  00000+0  69386-3 0  9999
2 40046  97.7063 215.4464 0038250  51.9404 308.5259 14.97881931628677
CANX-4                  
1 40055U 14034C   26047.49679218  .00001243  00000+0  16763-3 0  9996
2 40055  98.3309 278.2670 0013746  43.2094 317.0193 14.81003852626665
CANX-5                  
1 40056U 14034D   26047.15879566  .00001272  00000+0  17130-3 0  9999
2 40056  98.3313 277.9524 0013786  44.3744 315.8570 14.81019722617425
UKUBE-1                 
1 40074U 14037F   26047.49984300  .00010790  00000+0  64458-3 0  9992
2 40074  98.4207  38.3189 0001787 128.9472 231.1915 15.11305074630317
BRITE-PL2 (HEWELIUSZ)   
1 40119U 14049B   26047.30953110  .00003075  00000+0  29289-3 0  9991
2 40119  97.8976 158.5196 0014963 146.7742 213.4420 14.94061486623394
AEROCUBE 5C             
1 40965U 15058B   26047.04363433  .00003373  00000+0  30571-3 0  9992
2 40965  64.7666 279.2469 0132063 111.0717 250.4576 14.90664035347598
AEROCUBE 7              
1 40966U 15058C   26047.04019337  .00005025  00000+0  41268-3 0  9995
2 40966  64.7609 263.9751 0122124 110.3451 251.0833 14.94633356347841
FOX-1A (AO-85)          
1 40967U 15058D   26047.11818980  .00003599  00000+0  33103-3 0  9998
2 40967  64.7761 295.0066 0129956 104.5319 257.0250 14.90173410 95524
SINOD-D 1               
1 40968U 15058E   26047.03175662  .00005017  00000+0  41400-3 0  9999
2 40968  64.7744 278.0146 0118373 102.1022 259.3384 14.94790417 98546
SNAP-3 ALICE            
1 40970U 15058G   26047.50042159  .00057049  00000+0  13368-2 0  9991
2 40970  64.7584 154.6164 0037672  81.2311 279.3089 15.41005000 98184
LMRST-SAT               
1 40971U 15058H   26047.37890951  .00003647  00000+0  33663-3 0  9994
2 40971  64.7763 290.3118 0132164 106.3569 255.2121 14.89805944 95551
SNAP-3 EDDIE            
1 40972U 15058J   26047.51112782  .00060434  00000+0  13634-2 0  9992
2 40972  64.7505 146.1027 0039120  85.6260 274.9345 15.42053691100319
PROPCUBE 3              
1 40973U 15058K   26047.03516071  .00004384  00000+0  37266-3 0  9999
2 40973  64.7680 270.7964 0124919 108.3564 253.1183 14.93292708 96704
BISONSAT                
1 40974U 15058L   26047.41401566  .00016599  00000+0  86916-3 0  9991
2 40974  64.7591 203.2514 0080424 100.8565 260.1622 15.13156966 97321
SNAP-3 JIMI             
1 40975U 15058M   26047.51024894  .00008224  00000+0  58395-3 0  9994
2 40975  64.7629 241.1686 0106989 105.4659 255.8304 15.00770483 96100
PROPCUBE 1 (FLORA)      
1 40976U 15058N   26047.15662978  .00003144  00000+0  30339-3 0  9990
2 40976  64.7760 310.1331 0131306 108.6504 252.8916 14.88472949 98240
SINOD-D 3               
1 40977U 15058P   26047.11069410  .00004639  00000+0  40161-3 0  9993
2 40977  64.7730 293.6136 0119762 106.8817 254.5469 14.92970147 96670
HORYU-4                 
1 41340U 16012D   26046.85351412  .00080713  00000+0  98407-3 0  9998
2 41340  30.9903 220.2803 0000935 200.3702 159.6912 15.59112939551690
RAVAN                   
1 41849U 16067B   26047.46745307  .00039609  00000+0  85626-3 0  9997
2 41849  98.0087 284.0135 0008032  70.2677 289.9435 15.44365613509007
CELTEE 1                
1 41850U 16067C   26047.06755957  .00007140  00000+0  35199-3 0  9992
2 41850  98.0842 265.3615 0000719  40.8948 319.2338 15.18282580507493
OPTICUBE 04             
1 41851U 16067D   26047.49123409  .00003025  00000+0  19508-3 0  9995
2 41851  98.0817 253.4194 0016179 161.1361 199.0469 15.09048817506962
AEROCUBE 8D             
1 41852U 16067E   26047.04151713  .00009478  00000+0  41290-3 0  9997
2 41852  98.0860 268.0334 0003303 172.8856 187.2426 15.22446989507625
AEROCUBE 8C             
1 41853U 16067F   26047.41362734  .00010266  00000+0  44375-3 0  9990
2 41853  98.0724 265.8226 0006516 112.3396 247.8530 15.22672362507677
CORVUS BC2              
1 42846U 17042X   26047.45852802  .00004942  00000+0  34798-3 0  9993
2 42846  97.3914 213.6652 0013821 160.1224 200.0545 15.05398642468899
CORVUS BC1              
1 42847U 17042Y   26047.40177645  .00004681  00000+0  32779-3 0  9991
2 42847  97.3942 214.3398 0012966 138.1104 222.1117 15.05634691468917
